{"type": "FeatureCollection", "name": "rute", "crs": {"type": "name", "properties": {"name": "urn:ogc:def:crs:OGC:1.3:CRS84"}}, "features": [{"type": "Feature", "properties": {"trip_id": 1, "nama": "Trip 1", "kendaraan": "Bus kota", "kode_kendaraan": "K-05", "trayek": "Tangerang – Jakarta", "arah": "Jakarta ke Tangerang", "hari": "Senin", "tanggal": "03-03-2025", "jam_mulai": "05:22", "jam_selesai": "06:22", "jam_berangkat": 5, "durasi_menit": 60.0, "kecepatan_rata": 33.8, "kecepatan_maks": 44.4, "jumlah_titik": 121, "jarak_km": 33.8, "liter_total": 11.34, "liter_jalan": 11.34, "liter_idle": 0.0, "menit_idle": 0.0, "liter_per_100km": 33.56, "km_per_liter": 2.98, "biaya_rp": 77142, "liter_boros": 1.1, "biaya_boros_rp": 7495, "jenis_bbm": "Biosolar", "harga_per_liter": 6800, "malam": false}, "geometry": {"type": "LineString", "coordinates": [[106.893649, -6.121775], [106.893461, -6.119009], [106.89303, -6.117017], [106.893518, -6.128557], [106.892568, -6.13121], [106.890266, -6.130277], [106.885894, -6.127566], [106.882831, -6.126377], [106.863622, -6.122536], [106.860363, -6.122226], [106.857932, -6.123003], [106.852842, -6.125278], [106.850003, -6.12619], [106.838781, -6.128906], [106.833622, -6.129832], [106.827821, -6.130448], [106.821633, -6.131514], [106.818451, -6.131447], [106.816038, -6.13005], [106.813655, -6.129584], [106.802894, -6.131881], [106.792688, -6.132367], [106.78458, -6.131263], [106.781953, -6.130207], [106.77999, -6.128708], [106.777714, -6.126306], [106.776295, -6.124095], [106.774405, -6.121924], [106.771797, -6.121574], [106.768618, -6.121621], [106.760394, -6.122505], [106.75748, -6.122579], [106.745997, -6.122157], [106.743438, -6.121445], [106.73883, -6.119492], [106.736671, -6.118298], [106.734828, -6.116502], [106.732823, -6.116701], [106.73237, -6.11951], [106.729951, -6.124546], [106.729713, -6.138327], [106.7273, -6.150604], [106.727286, -6.154379], [106.726951, -6.158346], [106.727165, -6.166243], [106.728171, -6.177043], [106.730406, -6.188504], [106.729678, -6.190036], [106.727706, -6.190835], [106.725436, -6.190552], [106.723522, -6.190661], [106.721346, -6.191208], [106.717255, -6.193228], [106.698685, -6.207677]]}}, {"type": "Feature", "properties": {"trip_id": 2, "nama": "Trip 2", "kendaraan": "Bus kota", "kode_kendaraan": "K-05", "trayek": "Tangerang – Jakarta", "arah": "Tangerang ke Jakarta", "hari": "Senin", "tanggal": "03-03-2025", "jam_mulai": "09:44", "jam_selesai": "10:56", "jam_berangkat": 9, "durasi_menit": 72.0, "kecepatan_rata": 28.1, "kecepatan_maks": 34.4, "jumlah_titik": 145, "jarak_km": 33.76, "liter_total": 12.1, "liter_jalan": 12.1, "liter_idle": 0.0, "menit_idle": 0.0, "liter_per_100km": 35.84, "km_per_liter": 2.79, "biaya_rp": 82273, "liter_boros": 1.87, "biaya_boros_rp": 12705, "jenis_bbm": "Biosolar", "harga_per_liter": 6800, "malam": false}, "geometry": {"type": "LineString", "coordinates": [[106.700015, -6.206642], [106.717295, -6.193197], [106.720533, -6.191486], [106.722023, -6.191017], [106.725206, -6.190524], [106.727044, -6.190753], [106.728486, -6.190653], [106.729675, -6.190042], [106.730391, -6.188396], [106.72991, -6.185159], [106.728397, -6.178853], [106.727145, -6.166025], [106.726971, -6.159154], [106.727277, -6.151941], [106.727424, -6.150014], [106.729689, -6.138885], [106.729929, -6.132171], [106.729858, -6.125413], [106.730492, -6.123009], [106.732382, -6.119488], [106.732655, -6.117195], [106.734271, -6.115871], [106.736005, -6.117737], [106.737609, -6.118974], [106.745438, -6.122137], [106.758951, -6.122629], [106.769227, -6.121514], [106.77363, -6.121644], [106.775555, -6.122853], [106.778035, -6.126644], [106.781526, -6.129919], [106.785416, -6.131429], [106.792262, -6.132384], [106.803019, -6.131861], [106.813253, -6.12961], [106.815292, -6.129773], [106.818942, -6.131586], [106.821353, -6.131562], [106.827748, -6.130461], [106.83189, -6.130118], [106.838282, -6.128996], [106.849762, -6.126253], [106.851841, -6.125639], [106.857995, -6.122975], [106.860377, -6.122223], [106.862861, -6.122384], [106.882836, -6.126378], [106.886809, -6.128055], [106.890911, -6.130692], [106.892834, -6.131074], [106.893544, -6.129184], [106.893076, -6.11809], [106.893352, -6.117408], [106.893887, -6.122917]]}}, {"type": "Feature", "properties": {"trip_id": 3, "nama": "Trip 3", "kendaraan": "Bus kota", "kode_kendaraan": "K-05", "trayek": "Tangerang – Jakarta", "arah": "Tangerang ke Jakarta", "hari": "Senin", "tanggal": "03-03-2025", "jam_mulai": "14:55", "jam_selesai": "16:27", "jam_berangkat": 14, "durasi_menit": 92.5, "kecepatan_rata": 21.9, "kecepatan_maks": 30.3, "jumlah_titik": 186, "jarak_km": 33.73, "liter_total": 13.51, "liter_jalan": 13.46, "liter_idle": 0.04, "menit_idle": 1.0, "liter_per_100km": 40.05, "km_per_liter": 2.5, "biaya_rp": 91841, "liter_boros": 3.29, "biaya_boros_rp": 22343, "jenis_bbm": "Biosolar", "harga_per_liter": 6800, "malam": false}, "geometry": {"type": "LineString", "coordinates": [[106.700264, -6.206448], [106.718188, -6.192607], [106.721394, -6.191195], [106.723319, -6.190678], [106.728395, -6.19068], [106.729674, -6.190043], [106.730374, -6.188279], [106.729906, -6.185142], [106.728272, -6.178125], [106.727144, -6.166015], [106.726962, -6.158792], [106.727288, -6.154902], [106.727274, -6.151], [106.729709, -6.138413], [106.729936, -6.133246], [106.729764, -6.12809], [106.729907, -6.124807], [106.730348, -6.123415], [106.732714, -6.118842], [106.732653, -6.117328], [106.733356, -6.116058], [106.734622, -6.116268], [106.737522, -6.118937], [106.744476, -6.121885], [106.746009, -6.122158], [106.759075, -6.122618], [106.76971, -6.121495], [106.773414, -6.121636], [106.774962, -6.122232], [106.777678, -6.126268], [106.781227, -6.129689], [106.784054, -6.131051], [106.785729, -6.131473], [106.792182, -6.132385], [106.802619, -6.131925], [106.813814, -6.129574], [106.815562, -6.129844], [106.818484, -6.131456], [106.820148, -6.13177], [106.827114, -6.13057], [106.832168, -6.130093], [106.838872, -6.12889], [106.850783, -6.125956], [106.858639, -6.122687], [106.86116, -6.122044], [106.882384, -6.126287], [106.886181, -6.127679], [106.891787, -6.131045], [106.892877, -6.131022], [106.893473, -6.129784], [106.893519, -6.128596], [106.893038, -6.11721], [106.893353, -6.117418], [106.893727, -6.12293], [106.893887, -6.122917]]}}, {"type": "Feature", "properties": {"trip_id": 4, "nama": "Trip 4", "kendaraan": "Bus kota", "kode_kendaraan": "K-05", "trayek": "Tangerang – Jakarta", "arah": "Jakarta ke Tangerang", "hari": "Senin", "tanggal": "03-03-2025", "jam_mulai": "18:52", "jam_selesai": "20:22", "jam_berangkat": 18, "durasi_menit": 90.5, "kecepatan_rata": 22.4, "kecepatan_maks": 36.4, "jumlah_titik": 182, "jarak_km": 33.75, "liter_total": 13.16, "liter_jalan": 12.77, "liter_idle": 0.39, "menit_idle": 9.0, "liter_per_100km": 38.99, "km_per_liter": 2.57, "biaya_rp": 89484, "liter_boros": 2.93, "biaya_boros_rp": 19929, "jenis_bbm": "Biosolar", "harga_per_liter": 6800, "malam": false}, "geometry": {"type": "LineString", "coordinates": [[106.89372, -6.122823], [106.893368, -6.117643], [106.893023, -6.116839], [106.89353, -6.128855], [106.893152, -6.130694], [106.891526, -6.13099], [106.885463, -6.127398], [106.882192, -6.126249], [106.86194, -6.1222], [106.860167, -6.122272], [106.858428, -6.122781], [106.853433, -6.125014], [106.850069, -6.12617], [106.839976, -6.128648], [106.833248, -6.129899], [106.828254, -6.130407], [106.819476, -6.131738], [106.815003, -6.129696], [106.813038, -6.129623], [106.805944, -6.131374], [106.802494, -6.131945], [106.792402, -6.132379], [106.785643, -6.131461], [106.782195, -6.130304], [106.779655, -6.128354], [106.778258, -6.12688], [106.777039, -6.125341], [106.775253, -6.122391], [106.773747, -6.121649], [106.770229, -6.121514], [106.758098, -6.122602], [106.745582, -6.122142], [106.737746, -6.119032], [106.733778, -6.115921], [106.732778, -6.116833], [106.73269, -6.118254], [106.732178, -6.119868], [106.730374, -6.123343], [106.729835, -6.125682], [106.729937, -6.133235], [106.729601, -6.139669], [106.727274, -6.15088], [106.727015, -6.157559], [106.727128, -6.1655], [106.728312, -6.178501], [106.72993, -6.185245], [106.730268, -6.187515], [106.729901, -6.189673], [106.727893, -6.190824], [106.725468, -6.190556], [106.722861, -6.190779], [106.720905, -6.191333], [106.71735, -6.193154], [106.698685, -6.207677]]}}]}