{"type": "FeatureCollection", "name": "titik_ujung", "crs": {"type": "name", "properties": {"name": "urn:ogc:def:crs:OGC:1.3:CRS84"}}, "features": [{"type": "Feature", "properties": {"trip_id": 1, "jenis": "Titik Awal", "hari": "Senin", "waktu": "03-03-2025 05:22", "jarak_km": 33.8, "liter_total": 11.34, "biaya_rp": 77142}, "geometry": {"type": "Point", "coordinates": [106.893649, -6.121775]}}, {"type": "Feature", "properties": {"trip_id": 1, "jenis": "Titik Akhir", "hari": "Senin", "waktu": "03-03-2025 06:22", "jarak_km": 33.8, "liter_total": 11.34, "biaya_rp": 77142}, "geometry": {"type": "Point", "coordinates": [106.698685, -6.207677]}}, {"type": "Feature", "properties": {"trip_id": 2, "jenis": "Titik Awal", "hari": "Senin", "waktu": "03-03-2025 09:44", "jarak_km": 33.76, "liter_total": 12.1, "biaya_rp": 82273}, "geometry": {"type": "Point", "coordinates": [106.700015, -6.206642]}}, {"type": "Feature", "properties": {"trip_id": 2, "jenis": "Titik Akhir", "hari": "Senin", "waktu": "03-03-2025 10:56", "jarak_km": 33.76, "liter_total": 12.1, "biaya_rp": 82273}, "geometry": {"type": "Point", "coordinates": [106.893887, -6.122917]}}, {"type": "Feature", "properties": {"trip_id": 3, "jenis": "Titik Awal", "hari": "Senin", "waktu": "03-03-2025 14:55", "jarak_km": 33.73, "liter_total": 13.51, "biaya_rp": 91841}, "geometry": {"type": "Point", "coordinates": [106.700264, -6.206448]}}, {"type": "Feature", "properties": {"trip_id": 3, "jenis": "Titik Akhir", "hari": "Senin", "waktu": "03-03-2025 16:27", "jarak_km": 33.73, "liter_total": 13.51, "biaya_rp": 91841}, "geometry": {"type": "Point", "coordinates": [106.893887, -6.122917]}}, {"type": "Feature", "properties": {"trip_id": 4, "jenis": "Titik Awal", "hari": "Senin", "waktu": "03-03-2025 18:52", "jarak_km": 33.75, "liter_total": 13.16, "biaya_rp": 89484}, "geometry": {"type": "Point", "coordinates": [106.89372, -6.122823]}}, {"type": "Feature", "properties": {"trip_id": 4, "jenis": "Titik Akhir", "hari": "Senin", "waktu": "03-03-2025 20:22", "jarak_km": 33.75, "liter_total": 13.16, "biaya_rp": 89484}, "geometry": {"type": "Point", "coordinates": [106.698685, -6.207677]}}]}